NORAD_CAT_ID,OBJECT_NAME,OBJECT_TYPE,EPOCH,MEAN_MOTION,ECCENTRICITY,INCLINATION,RA_OF_ASC_NODE,ARG_OF_PERICENTER,MEAN_ANOMALY,BSTAR,MEAN_MOTION_DOT,MEAN_MOTION_DDOT,TLE_LINE0,TLE_LINE1,TLE_LINE2,SEMIMAJOR_AXIS,PERIOD,APOGEE,PERIGEE,DECAYED
52855.0,STARLINK-4209,PAYLOAD,2023-08-26 10:53:05,15.08842919,0.0001311,53.2164,222.1525,96.8167,263.2975,8.282e-05,1.031e-05,0.0,0 STARLINK-4209,1 52855U 22062AB  23238.45353856  .00001031  00000-0  82820-4 0  9993,2 52855  53.2164 222.1525 0001311  96.8167 263.2975 15.08842919 66092,6917.871,95.437,540.643,538.83,0.0
52855.0,STARLINK-4209,PAYLOAD,2023-08-27 04:22:21,15.08834647,0.0001591,53.2168,218.8773,114.1458,245.97,-1.2426e-05,-4.86e-06,0.0,0 STARLINK-4209,1 52855U 22062AB  23239.18218811 -.00000486  00000-0 -12426-4 0  9995,2 52855  53.2168 218.8773 0001591 114.1458 245.9700 15.08834647 66698,6917.897,95.438,540.862,538.661,0.0
52855.0,STARLINK-4209,PAYLOAD,2023-08-27 09:08:30,15.08836142,0.0001476,53.2169,217.9865,108.0999,252.0154,1.0314e-05,-1.24e-06,0.0,0 STARLINK-4209,1 52855U 22062AB  23239.38090734 -.00000124  00000-0  10314-4 0  9991,2 52855  53.2169 217.9865 0001476 108.0999 252.0154 15.08836142 66239,6917.892,95.438,540.778,538.736,0.0
52855.0,STARLINK-4209,PAYLOAD,2023-08-28 07:23:56,15.08719127,0.0002286,53.2165,213.8267,106.5099,253.6144,0.0018343,0.00028929,0.0,0 STARLINK-4209,1 52855U 22062AB  23240.30829561  .00028929  00000-0  18343-2 0  9993,2 52855  53.2165 213.8267 0002286 106.5099 253.6144 15.08719127 66868,6918.25,95.445,541.696,538.533,0.0
52855.0,STARLINK-4209,PAYLOAD,2023-08-28 15:20:49,15.08837142,0.0001373,53.2162,212.3405,83.4898,276.625,0.00013776,1.905e-05,0.0,0 STARLINK-4209,1 52855U 22062AB  23240.63946706  .00001905  00000-0  13776-3 0  9991,2 52855  53.2162 212.3405 0001373  83.4898 276.6250 15.08837142 66916,6917.889,95.438,540.704,538.804,0.0
52855.0,STARLINK-4209,PAYLOAD,2023-08-28 21:42:22,15.08836488,0.0001392,53.2163,211.1515,83.6378,276.4773,0.00012323,1.674e-05,0.0,0 STARLINK-4209,1 52855U 22062AB  23240.90442886  .00001674  00000-0  12323-3 0  9991,2 52855  53.2163 211.1515 0001392  83.6378 276.4773 15.08836488 66462,6917.891,95.438,540.719,538.793,0.0
52855.0,STARLINK-4209,PAYLOAD,2023-08-29 07:14:41,15.08842687,0.0001405,53.2165,209.3665,83.8611,276.2541,0.00011538,1.549e-05,0.0,0 STARLINK-4209,1 52855U 22062AB  23241.30186622  .00001549  00000-0  11538-3 0  9997,2 52855  53.2165 209.3665 0001405  83.8611 276.2541 15.08842687 66522,6917.872,95.437,540.709,538.765,0.0
52855.0,STARLINK-4209,PAYLOAD,2023-08-30 07:05:28,15.08846792,0.0001458,53.2171,204.9066,92.787,267.3289,7.3941e-05,8.89e-06,0.0,0 STARLINK-4209,1 52855U 22062AB  23242.29546465  .00000889  00000-0  73941-4 0  9994,2 52855  53.2171 204.9066 0001458  92.7870 267.3289 15.08846792 67161,6917.86,95.437,540.733,538.716,0.0
52855.0,STARLINK-4209,PAYLOAD,2023-08-30 15:02:24,15.08841773,0.0001261,53.2163,203.4186,88.8968,271.2169,1.409e-05,-6.4e-07,0.0,0 STARLINK-4209,1 52855U 22062AB  23242.62666813 -.00000064  00000-0  14090-4 0  9997,2 52855  53.2163 203.4186 0001261  88.8968 271.2169 15.08841773 67216,6917.875,95.437,540.612,538.868,0.0
52855.0,STARLINK-4209,PAYLOAD,2023-08-31 03:45:29,15.08842535,0.0001326,53.2166,201.0401,87.8806,272.2338,8.3479e-05,1.041e-05,0.0,0 STARLINK-4209,1 52855U 22062AB  23243.15658610  .00001041  00000-0  83479-4 0  9994,2 52855  53.2166 201.0401 0001326  87.8806 272.2338 15.08842535 66805,6917.873,95.437,540.655,538.82,0.0
52855.0,STARLINK-4209,PAYLOAD,2023-09-01 03:36:16,15.08838411,7.78e-05,53.2165,196.5793,90.2915,269.8167,5.0606e-05,5.18e-06,0.0,0 STARLINK-4209,1 52855U 22062AB  23244.15018972  .00000518  00000-0  50606-4 0  9990,2 52855  53.2165 196.5793 0000778  90.2915 269.8167 15.08838411 67446,6917.885,95.438,540.288,539.212,0.0
52855.0,STARLINK-4209,PAYLOAD,2023-09-01 21:05:31,15.08803365,0.0002634,53.2267,193.3153,291.4983,68.5729,0.00063131,9.764e-05,0.0,0 STARLINK-4209,1 52855U 22062AB  23244.87883305  .00009764  00000-0  63131-3 0  9997,2 52855  53.2267 193.3153 0002634 291.4983  68.5729 15.08803365 67557,6917.992,95.44,541.68,538.035,0.0
52855.0,STARLINK-4209,PAYLOAD,2023-09-02 03:27:04,15.08808819,0.0001826,53.2255,192.1252,275.964,84.1144,0.00062274,9.628e-05,0.0,0 STARLINK-4209,1 52855U 22062AB  23245.14379770  .00009628  00000-0  62274-3 0  9990,2 52855  53.2255 192.1252 0001826 275.9640  84.1144 15.08808819 67105,6917.976,95.44,541.104,538.577,0.0
52855.0,STARLINK-4209,PAYLOAD,2023-09-02 20:56:18,15.08836122,0.0001185,53.2162,188.8483,90.7106,269.4022,6.8906e-05,8.09e-06,0.0,0 STARLINK-4209,1 52855U 22062AB  23245.87243375  .00000809  00000-0  68906-4 0  9992,2 52855  53.2162 188.8483 0001185  90.7106 269.4022 15.08836122 67211,6917.892,95.438,540.577,538.937,0.0
52855.0,STARLINK-4209,PAYLOAD,2023-09-03 00:07:04,15.08835465,0.0001533,53.2161,188.2542,94.3752,265.7415,6.0412e-05,6.73e-06,0.0,0 STARLINK-4209,1 52855U 22062AB  23246.00491444  .00000673  00000-0  60412-4 0  9993,2 52855  53.2161 188.2542 0001533  94.3752 265.7415 15.08835465 67724,6917.894,95.438,540.82,538.699,0.0
52855.0,STARLINK-4209,PAYLOAD,2023-09-03 03:17:50,15.08849234,8.27e-05,53.2163,187.66,88.9256,271.1831,-4.9475e-05,-1.075e-05,0.0,0 STARLINK-4209,1 52855U 22062AB  23246.13738995 -.00001075  00000-0 -49475-4 0  9997,2 52855  53.2163 187.6600 0000827  88.9256 271.1831 15.08849234 67741,6917.852,95.437,540.289,539.145,0.0
52855.0,STARLINK-4209,PAYLOAD,2023-09-03 12:50:09,15.08836633,0.0001433,53.2173,185.8764,96.694,263.4216,6.3677e-05,7.26e-06,0.0,0 STARLINK-4209,1 52855U 22062AB  23246.53483652  .00000726  00000-0  63677-4 0  9998,2 52855  53.2173 185.8764 0001433  96.6940 263.4216 15.08836633 67316,6917.891,95.438,540.747,538.764,0.0
52855.0,STARLINK-4209,PAYLOAD,2023-09-04 12:40:57,15.08834073,0.0001119,53.2176,181.4157,84.997,275.115,7.5004e-05,9.06e-06,0.0,0 STARLINK-4209,1 52855U 22062AB  23247.52844076  .00000906  00000-0  75004-4 0  9996,2 52855  53.2176 181.4157 0001119  84.9970 275.1150 15.08834073 67460,6917.899,95.438,540.538,538.989,0.0
52855.0,STARLINK-4209,PAYLOAD,2023-09-04 23:48:39,15.0883957,0.0001122,53.2177,179.3339,87.8895,272.2225,7.9624e-05,9.8e-06,0.0,0 STARLINK-4209,1 52855U 22062AB  23247.99211880  .00000980  00000-0  79624-4 0  9992,2 52855  53.2177 179.3339 0001122  87.8895 272.2225 15.08839570 68022,6917.882,95.438,540.523,538.971,0.0
52855.0,STARLINK-4209,PAYLOAD,2023-09-06 01:14:49,15.08835589,0.0001168,53.218,174.5764,82.5672,277.5453,0.00014781,2.065e-05,0.0,0 STARLINK-4209,1 52855U 22062AB  23249.05196146  .00002065  00000-0  14781-3 0  9996,2 52855  53.2180 174.5764 0001168  82.5672 277.5453 15.08835589 68184,6917.894,95.438,540.567,538.951,0.0
52855.0,STARLINK-4209,PAYLOAD,2023-09-06 18:44:03,15.0884355,0.0001193,53.2179,171.3059,79.7027,280.41,7.5269e-05,9.1e-06,0.0,0 STARLINK-4209,1 52855U 22062AB  23249.78059903  .00000910  00000-0  75269-4 0  9991,2 52855  53.2179 171.3059 0001193  79.7027 280.4100 15.08843550 67801,6917.87,95.437,540.56,538.909,0.0
52855.0,STARLINK-4209,PAYLOAD,2023-09-07 01:05:36,15.08844446,0.000119,53.2178,170.1163,79.3941,280.7185,7.8312e-05,9.59e-06,0.0,0 STARLINK-4209,1 52855U 22062AB  23250.04555782  .00000959  00000-0  78312-4 0  9993,2 52855  53.2178 170.1163 0001190  79.3941 280.7185 15.08844446 67846,6917.867,95.437,540.555,538.909,0.0
52855.0,STARLINK-4209,PAYLOAD,2023-09-08 00:56:23,15.08844009,0.0001562,53.2177,165.6536,99.1246,260.9923,7.2711e-05,8.69e-06,0.0,0 STARLINK-4209,1 52855U 22062AB  23251.03915595  .00000869  00000-0  72711-4 0  9992,2 52855  53.2177 165.6536 0001562  99.1246 260.9923 15.08844009 68485,6917.868,95.437,540.814,538.653,0.0
52855.0,STARLINK-4209,PAYLOAD,2023-09-08 18:25:37,15.08839509,0.0001331,53.217,162.3825,98.2149,261.8994,2.8751e-05,1.7e-06,0.0,0 STARLINK-4209,1 52855U 22062AB  23251.76779950  .00000170  00000-0  28751-4 0  9995,2 52855  53.2170 162.3825 0001331  98.2149 261.8994 15.08839509 68598,6917.882,95.438,540.668,538.826,0.0
52855.0,STARLINK-4209,PAYLOAD,2023-09-09 00:47:10,15.08842793,0.0001398,53.2179,161.1954,92.1058,268.0094,7.2207e-05,8.62e-06,0.0,0 STARLINK-4209,1 52855U 22062AB  23252.03275686  .00000862  00000-0  72207-4 0  9996,2 52855  53.2179 161.1954 0001398  92.1058 268.0094 15.08842793 68142,6917.872,95.437,540.704,538.77,0.0
52855.0,STARLINK-4209,PAYLOAD,2023-09-10 00:37:57,15.0884442,0.0001403,53.218,156.7353,97.5138,262.6013,9.8499e-05,1.28e-05,0.0,0 STARLINK-4209,1 52855U 22062AB  23253.02635565  .00001280  00000-0  98499-4 0  9998,2 52855  53.2180 156.7353 0001403  97.5138 262.6013 15.08844420 68782,6917.867,95.437,540.702,538.761,0.0
52855.0,STARLINK-4209,PAYLOAD,2023-09-10 03:48:43,15.08846747,0.0001369,53.2177,156.1396,96.3177,263.7971,0.00011292,1.51e-05,0.0,0 STARLINK-4209,1 52855U 22062AB  23253.15883335  .00001510  00000-0  11292-3 0  9993,2 52855  53.2177 156.1396 0001369  96.3177 263.7971 15.08846747 68318,6917.86,95.437,540.672,538.778,0.0
52855.0,STARLINK-4209,PAYLOAD,2023-09-10 18:07:12,15.08831563,0.0001487,53.2184,153.4662,99.5196,260.5964,-6.1296e-07,-2.98e-06,0.0,0 STARLINK-4209,1 52855U 22062AB  23253.75500855 -.00000298  00000-0 -61296-6 0  9998,2 52855  53.2184 153.4662 0001487  99.5196 260.5964 15.08831563 68899,6917.906,95.438,540.8,538.742,0.0
52855.0,STARLINK-4209,PAYLOAD,2023-09-11 10:01:03,15.08838242,0.0001417,53.218,150.4902,91.1758,268.9396,8.4602e-06,-1.53e-06,0.0,0 STARLINK-4209,1 52855U 22062AB  23254.41740599 -.00000153  00000-0  84602-5 0  9997,2 52855  53.2180 150.4902 0001417  91.1758 268.9396 15.08838242 68504,6917.886,95.438,540.731,538.77,0.0
52855.0,STARLINK-4209,PAYLOAD,2023-09-12 01:54:54,15.08848316,0.0001325,53.2174,147.513,84.9506,275.1638,6.3201e-05,7.18e-06,0.0,0 STARLINK-4209,1 52855U 22062AB  23255.07979887  .00000718  00000-0  63201-4 0  9991,2 52855  53.2174 147.5130 0001325  84.9506 275.1638 15.08848316 69093,6917.855,95.437,540.637,538.803,0.0
